OBJECT_NAME,OBJECT_ID,EPOCH,MEAN_MOTION,ECCENTRICITY,INCLINATION,RA_OF_ASC_NODE,ARG_OF_PERICENTER,MEAN_ANOMALY,EPHEMERIS_TYPE,CLASSIFICATION_TYPE,NORAD_CAT_ID,ELEMENT_SET_NO,REV_AT_EPOCH,BSTAR,MEAN_MOTION_DOT,MEAN_MOTION_DDOT
SL-16 R/B,1996-051B,2026-06-14T20:03:46.186272,14.12445102,.0015269,70.7640,329.6249,340.4211,19.6321,0,U,24298,999,53536,.85345E-4,.108E-5,0
ORBVIEW 2 (SEASTAR),1997-037A,2026-06-14T17:16:39.324576,14.35552169,.0003138,98.8685,332.6706,120.9134,239.2359,0,U,24883,999,52239,.75584E-4,.171E-5,0
SL-16 R/B,1998-043G,2026-06-14T20:05:23.591904,14.26068239,.0010931,98.8363,119.9760,92.4529,267.7902,0,U,25400,999,45283,.29073E-4,.24E-6,0
SL-16 R/B,1998-045B,2026-06-14T20:01:32.176416,14.16204067,.0009497,71.0120,337.2780,244.4291,115.5851,0,U,25407,999,44085,-.92658E-4,-.231E-5,0
ISS (ZARYA),1998-067A,2026-06-14T19:16:03.749088,15.49231655,.0004856,51.6336,311.8940,186.3522,173.7405,0,U,25544,999,57138,.16005E-3,.8449E-4,0
CZ-4B R/B,1999-025C,2026-06-14T16:16:37.305120,14.18283020,.0038163,98.6484,207.5798,66.6809,41.9203,0,U,25732,999,40191,.44019E-4,.49E-6,0
OKEAN-O,1999-039A,2026-06-14T15:27:25.996896,14.80464350,.000169,97.9317,224.4710,74.1369,286.0030,0,U,25860,999,44873,.73816E-4,.512E-5,0
SL-16 R/B,1999-039B,2026-06-14T14:24:57.708288,14.81842837,.001359,97.9839,224.4710,306.1092,53.8862,0,U,25861,999,45121,.6043E-4,.424E-5,0
DELTA 2 R/B,1999-041E,2026-06-14T13:21:26.281152,14.12012204,.05008571,51.7658,274.3052,274.2393,80.1479,0,U,25876,999,37671,.15448724E-3,.725E-5,0
HELIOS 1B,1999-064A,2026-06-14T14:57:34.905024,14.88000508,.0002477,98.1618,70.6889,94.5856,265.5642,0,U,25977,999,69967,.14349E-3,.1258E-4,0
TERRA,1999-068A,2026-06-14T19:57:03.688416,14.61101387,.0001396,97.9457,215.4709,198.1654,250.3347,0,U,25994,999,40926,.78603E-4,.342E-5,0
SL-16 R/B,2000-006B,2026-06-14T15:54:48.741696,14.15834358,.0015403,71.0023,253.9325,26.8659,333.3258,0,U,26070,999,36228,-.65179E-4,-.176E-5,0
TITAN 4B R/B,2000-047B,2026-06-14T19:24:08.322624,15.10185609,.0045672,67.9877,127.2687,289.6342,69.9880,0,U,26474,999,40757,.18265E-3,.2924E-4,0
ENVISAT,2002-009A,2026-06-14T21:15:56.575008,14.39064332,.0001333,98.3834,117.2557,89.1369,336.8217,0,U,27386,999,27315,.34459E-4,.64E-6,0
IDEFIX & ARIANE 42P R/B,2002-021B,2026-06-14T13:01:23.582784,14.31080970,.0010572,98.5943,103.0544,262.5898,97.4083,0,U,27422,999,25787,.80842E-4,.169E-5,0
AQUA,2002-022A,2026-06-14T20:43:30.510912,14.62154950,.0001191,98.4276,135.0999,53.4276,3.6446,0,U,27424,999,28293,.14241E-3,.667E-5,0
CZ-4B R/B,2002-024C,2026-06-14T15:12:37.593216,14.14563962,.0051173,98.8701,218.4706,107.3228,7.4511,0,U,27432,999,24294,.44729E-4,.43E-6,0
MIDORI II (ADEOS-II),2002-056A,2026-06-14T19:52:20.229024,14.29348498,.0002213,98.7877,125.0677,80.3132,279.8299,0,U,27597,999,22417,.10136E-3,.213E-5,0
H-2A R/B,2002-056E,2026-06-14T20:19:50.416320,14.33821121,.0069084,98.3311,122.6069,231.6232,182.2384,0,U,27601,999,22803,.6733E-4,.15E-5,0
CZ-4B R/B,2003-049C,2026-06-14T18:08:16.026720,14.55098690,.0047027,98.6895,164.5055,296.2007,63.4358,0,U,28059,999,20071,.68499E-4,.248E-5,0
CZ-2C R/B,2004-012C,2026-06-14T05:52:03.144576,15.78471137,.0009029,97.7091,240.5659,296.3814,63.6524,0,U,28222,999,21943,.59498679E-3,.103879E-2,0
SL-16 R/B,2004-021B,2026-06-14T19:52:00.782976,14.14609351,.0007366,71.0011,28.6413,257.6292,102.4006,0,U,28353,999,13657,-.11794E-3,-.274E-5,0
CZ-4B R/B,2004-035C,2026-06-14T20:16:02.861184,15.30597027,.0030148,97.3365,198.9442,346.5814,13.4621,0,U,28415,999,19476,.24897E-3,.7389E-4,0
CZ-2C R/B,2004-046B,2026-06-14T16:00:54.520416,14.27026020,.0138367,98.1947,74.6055,227.7687,131.1689,0,U,28480,999,12233,.39628E-4,.65E-6,0
ARIANE 5 R/B,2004-049H,2026-06-14T10:27:36.821376,14.85445757,.00846867,98.2719,337.5827,38.2674,322.4509,0,U,28499,999,16015,.71038589E-4,.588E-5,0
CZ-2D R/B,2005-024B,2026-06-14T19:06:52.828128,15.69320944,.0003724,97.3481,185.1055,59.5998,300.5631,0,U,28738,999,15496,.43532E-3,.50908E-3,0
ALOS (DAICHI),2006-002A,2026-06-14T20:15:51.819264,14.70046006,.0001542,98.1323,121.4190,58.2150,301.9206,0,U,28931,999,8775,.16122E-3,.918E-5,0
H-2A R/B,2006-002B,2026-06-14T16:21:29.072736,15.18033638,.0049529,98.2554,321.2838,271.0608,88.4949,0,U,28932,999,10914,.27814E-3,.5759E-4,0
RESURS-DK 1,2006-021A,2026-06-14T20:29:41.237664,15.13210055,.0006839,69.9340,345.5925,293.4574,66.5873,0,U,29228,999,10222,.14012E-3,.2387E-4,0
CZ-4B R/B,2006-046C,2026-06-14T21:06:25.261056,15.17769006,.0031029,97.5453,210.4934,291.1743,68.6176,0,U,29507,999,7478,.19069E-3,.3827E-4,0
CZ-2C R/B,2007-010B,2026-06-14T14:15:41.502240,14.20275683,.0059177,98.4096,274.0720,13.6560,346.6202,0,U,31114,999,99347,.47362E-4,.62E-6,0
