SL-16 R/B               
1 24298U 96051B   26165.83595123  .00000108  00000+0  85345-4 0  9999
2 24298  70.7640 329.6249 0015269 340.4211  19.6321 14.12445102535362
ORBVIEW 2 (SEASTAR)     
1 24883U 97037A   26165.71989959  .00000171  00000+0  75584-4 0  9999
2 24883  98.8685 332.6706 0003138 120.9134 239.2359 14.35552169522398
SL-16 R/B               
1 25400U 98043G   26165.83707861  .00000024  00000+0  29073-4 0  9995
2 25400  98.8363 119.9760 0010931  92.4529 267.7902 14.26068239452834
SL-16 R/B               
1 25407U 98045B   26165.83440019 -.00000231  00000+0 -92658-4 0  9994
2 25407  71.0120 337.2780 0009497 244.4291 115.5851 14.16204067440854
ISS (ZARYA)             
1 25544U 98067A   26165.80282117  .00008449  00000+0  16005-3 0  9998
2 25544  51.6336 311.8940 0004856 186.3522 173.7405 15.49231655571384
CZ-4B R/B               
1 25732U 99025C   26165.67820955  .00000049  00000+0  44019-4 0  9990
2 25732  98.6484 207.5798 0038163  66.6809  41.9203 14.18283020401917
OKEAN-O                 
1 25860U 99039A   26165.64405089  .00000512  00000+0  73816-4 0  9993
2 25860  97.9317 224.4710 0001690  74.1369 286.0030 14.80464350448735
SL-16 R/B               
1 25861U 99039B   26165.60066792  .00000424  00000+0  60430-4 0  9994
2 25861  97.9839 224.4710 0013590 306.1092  53.8862 14.81842837451219
DELTA 2 R/B             
1 25876U 99041E   26165.55655418  .00000725  00000+0  15449-3 0  9999
2 25876  51.7658 274.3052 0500857 274.2393  80.1479 14.12012204376710
HELIOS 1B               
1 25977U 99064A   26165.62332066  .00001258  00000+0  14349-3 0  9995
2 25977  98.1618  70.6889 0002477  94.5856 265.5642 14.88000508699671
TERRA                   
1 25994U 99068A   26165.83129269  .00000342  00000+0  78603-4 0  9997
2 25994  97.9457 215.4709 0001396 198.1654 250.3347 14.61101387409260
SL-16 R/B               
1 26070U 00006B   26165.66306414 -.00000176  00000+0 -65179-4 0  9998
2 26070  71.0023 253.9325 0015403  26.8659 333.3258 14.15834358362288
TITAN 4B R/B            
1 26474U 00047B   26165.80842966  .00002924  00000+0  18265-3 0  9998
2 26474  67.9877 127.2687 0045672 289.6342  69.9880 15.10185609407579
ENVISAT                 
1 27386U 02009A   26165.88607147  .00000064  00000+0  34459-4 0  9996
2 27386  98.3834 117.2557 0001333  89.1369 336.8217 14.39064332273150
IDEFIX & ARIANE 42P R/B 
1 27422U 02021B   26165.54263406  .00000169  00000+0  80842-4 0  9993
2 27422  98.5943 103.0544 0010572 262.5898  97.4083 14.31080970257872
AQUA                    
1 27424U 02022A   26165.86354758  .00000667  00000+0  14241-3 0  9994
2 27424  98.4276 135.0999 0001191  53.4276   3.6446 14.62154950282936
CZ-4B R/B               
1 27432U 02024C   26165.63376844  .00000043  00000+0  44729-4 0  9993
2 27432  98.8701 218.4706 0051173 107.3228   7.4511 14.14563962242941
MIDORI II (ADEOS-II)    
1 27597U 02056A   26165.82801191  .00000213  00000+0  10136-3 0  9992
2 27597  98.7877 125.0677 0002213  80.3132 279.8299 14.29348498224175
H-2A R/B                
1 27601U 02056E   26165.84711130  .00000150  00000+0  67330-4 0  9992
2 27601  98.3311 122.6069 0069084 231.6232 182.2384 14.33821121228034
CZ-4B R/B               
1 28059U 03049C   26165.75574105  .00000248  00000+0  68499-4 0  9997
2 28059  98.6895 164.5055 0047027 296.2007  63.4358 14.55098690200719
CZ-2C R/B               
1 28222U 04012C   26165.24448084  .00103879  00000+0  59499-3 0  9993
2 28222  97.7091 240.5659 0009029 296.3814  63.6524 15.78471137219434
SL-16 R/B               
1 28353U 04021B   26165.82778684 -.00000274  00000+0 -11794-3 0  9997
2 28353  71.0011  28.6413 0007366 257.6292 102.4006 14.14609351136571
CZ-4B R/B               
1 28415U 04035C   26165.84447756  .00007389  00000+0  24897-3 0  9996
2 28415  97.3365 198.9442 0030148 346.5814  13.4621 15.30597027194762
CZ-2C R/B               
1 28480U 04046B   26165.66729769  .00000065  00000+0  39628-4 0  9990
2 28480  98.1947  74.6055 0138367 227.7687 131.1689 14.27026020122330
ARIANE 5 R/B            
1 28499U 04049H   26165.43584284  .00000588  00000+0  71039-4 0  9991
2 28499  98.2719 337.5827 0084686  38.2674 322.4509 14.85445757160155
CZ-2D R/B               
1 28738U 05024B   26165.79644477  .00050908  00000+0  43532-3 0  9998
2 28738  97.3481 185.1055 0003724  59.5998 300.5631 15.69320944154964
ALOS (DAICHI)           
1 28931U 06002A   26165.84434976  .00000918  00000+0  16122-3 0  9998
2 28931  98.1323 121.4190 0001542  58.2150 301.9206 14.70046006 87758
H-2A R/B                
1 28932U 06002B   26165.68158649  .00005759  00000+0  27814-3 0  9999
2 28932  98.2554 321.2838 0049529 271.0608  88.4949 15.18033638109144
RESURS-DK 1             
1 29228U 06021A   26165.85394951  .00002387  00000+0  14012-3 0  9996
2 29228  69.9340 345.5925 0006839 293.4574  66.5873 15.13210055102224
CZ-4B R/B               
1 29507U 06046C   26165.87945904  .00003827  00000+0  19069-3 0  9992
2 29507  97.5453 210.4934 0031029 291.1743  68.6176 15.17769006 74785
CZ-2C R/B               
1 31114U 07010B   26165.59423035  .00000062  00000+0  47362-4 0  9992
2 31114  98.4096 274.0720 0059177  13.6560 346.6202 14.20275683993473
